{
    "links": {
        "self": "http://www.neowsapp.com/rest/v1/neo/3478346?api_key=iIulBulltgU6a56xZRHN4H3l9WmuAYTsLGpBGhQ2"
    },
    "id": "3478346",
    "neo_reference_id": "3478346",
    "name": "(2009 WY51)",
    "designation": "2009 WY51",
    "nasa_jpl_url": "http://ssd.jpl.nasa.gov/sbdb.cgi?sstr=3478346",
    "absolute_magnitude_h": 21.8,
    "estimated_diameter": {
        "kilometers": {
            "estimated_diameter_min": 0.1160259082,
            "estimated_diameter_max": 0.2594418179
        },
        "meters": {
            "estimated_diameter_min": 116.0259082094,
            "estimated_diameter_max": 259.4418179074
        },
        "miles": {
            "estimated_diameter_min": 0.0720951346,
            "estimated_diameter_max": 0.1612096218
        },
        "feet": {
            "estimated_diameter_min": 380.6624406898,
            "estimated_diameter_max": 851.1870938635
        }
    },
    "is_potentially_hazardous_asteroid": false,
    "close_approach_data": [
        {
            "close_approach_date": "2003-10-07",
            "close_approach_date_full": "2003-Oct-07 22:15",
            "epoch_date_close_approach": 1065564900000,
            "relative_velocity": {
                "kilometers_per_second": "7.4397955109",
                "kilometers_per_hour": "26783.2638392544",
                "miles_per_hour": "16642.0785783411"
            },
            "miss_distance": {
                "astronomical": "1.8257962803",
                "lunar": "710.2347530367",
                "kilometers": "273135234.586802961",
                "miles": "169718364.8270884218"
            },
            "orbiting_body": "Juptr"
        },
        {
            "close_approach_date": "2009-10-31",
            "close_approach_date_full": "2009-Oct-31 12:20",
            "epoch_date_close_approach": 1256991600000,
            "relative_velocity": {
                "kilometers_per_second": "16.4218551196",
                "kilometers_per_hour": "59118.6784304905",
                "miles_per_hour": "36734.0477169901"
            },
            "miss_distance": {
                "astronomical": "0.1262638272",
                "lunar": "49.1166287808",
                "kilometers": "18888799.607168064",
                "miles": "11736955.8260207232"
            },
            "orbiting_body": "Earth"
        },
        {
            "close_approach_date": "2015-09-10",
            "close_approach_date_full": "2015-Sep-10 21:32",
            "epoch_date_close_approach": 1441920720000,
            "relative_velocity": {
                "kilometers_per_second": "6.0895523689",
                "kilometers_per_hour": "21922.3885280397",
                "miles_per_hour": "13621.7196939923"
            },
            "miss_distance": {
                "astronomical": "1.5620000781",
                "lunar": "607.6180303809",
                "kilometers": "233671884.623593647",
                "miles": "145196976.2318484486"
            },
            "orbiting_body": "Juptr"
        },
        {
            "close_approach_date": "2170-01-08",
            "close_approach_date_full": "2170-Jan-08 08:52",
            "epoch_date_close_approach": 6312070320000,
            "relative_velocity": {
                "kilometers_per_second": "5.0826193758",
                "kilometers_per_hour": "18297.4297529573",
                "miles_per_hour": "11369.311281775"
            },
            "miss_distance": {
                "astronomical": "1.4081771055",
                "lunar": "547.7808940395",
                "kilometers": "210660295.565565285",
                "miles": "130898237.832499533"
            },
            "orbiting_body": "Juptr"
        }
    ],
    "orbital_data": {
        "orbit_id": "10",
        "orbit_determination_date": "2017-04-06 08:59:00",
        "first_observation_date": "2009-11-22",
        "last_observation_date": "2009-12-19",
        "data_arc_in_days": 27,
        "observations_used": 28,
        "orbit_uncertainty": "8",
        "minimum_orbit_intersection": ".0666991",
        "jupiter_tisserand_invariant": "2.961",
        "epoch_osculation": "2455163.5",
        "eccentricity": ".711869605101474",
        "semi_major_axis": "2.62132118388101",
        "inclination": "11.8220200742704",
        "ascending_node_longitude": "249.3372267628644",
        "orbital_period": "1550.168054097404",
        "perihelion_distance": ".7552823078675069",
        "perihelion_argument": "87.1457683103786",
        "aphelion_distance": "4.487360059894512",
        "perihelion_time": "2455094.894547858520",
        "mean_anomaly": "15.93244210242312",
        "mean_motion": ".2322328853626212",
        "equinox": "J2000",
        "orbit_class": {
            "orbit_class_type": "APO",
            "orbit_class_description": "Near-Earth asteroid orbits which cross the Earth’s orbit similar to that of 1862 Apollo",
            "orbit_class_range": "a (semi-major axis) > 1.0 AU; q (perihelion) < 1.017 AU"
        }
    },
    "is_sentry_object": false
}